{"type": "FeatureCollection", "features": [ {"type": "Feature", "properties": {"norad_id": 43648, "name": "BEIDOU-3 M15 (C34)", "group": "gnss", "lat": 51.43658228401593, "lon": 61.837813275168585, "alt_km": 21521.38350787075, "timestamp": "2025-12-16T17:51:11.174702+00:00", "meta": {"OBJECT_NAME": "BEIDOU-3 M15 (C34)", "OBJECT_ID": "2018-078B", "EPOCH": "2025-12-14T10:31:50.376000", "MEAN_MOTION": 1.86231962, "ECCENTRICITY": 0.00037442, "INCLINATION": 54.256, "RA_OF_ASC_NODE": 306.4619, "ARG_OF_PERICENTER": 18.2942, "MEAN_ANOMALY": 341.7074, "EPHEMERIS_TYPE": 0, "CLASSIFICATION_TYPE": "U", "NORAD_CAT_ID": 43648, "ELEMENT_SET_NO": 999, "REV_AT_EPOCH": 4873, "BSTAR": 0, "MEAN_MOTION_DOT": -1e-06, "MEAN_MOTION_DDOT": 0}, "tle": {"line1": "1 43648U 18078B   25348.43877750 -.00000100  00000+0  00000+0 0  9992", "line2": "2 43648  54.2560 306.4619 0003744  18.2942 341.7074  1.86231962 48738"}}, "geometry": {"type": "Point", "coordinates": [61.837813275168585, 51.43658228401593]}}, {"type": "Feature", "properties": {"norad_id": 43683, "name": "BEIDOU-3 G1 (C59)", "group": "gnss", "lat": 1.3455064850961727, "lon": 133.43658893486244, "alt_km": 35780.1698077652, "timestamp": "2025-12-16T17:51:11.174714+00:00", "meta": {"OBJECT_NAME": "BEIDOU-3 G1 (C59)", "OBJECT_ID": "2018-085A", "EPOCH": "2025-12-15T22:36:50.710176", "MEAN_MOTION": 1.00269966, "ECCENTRICITY": 0.00016261, "INCLINATION": 2.6158, "RA_OF_ASC_NODE": 102.8765, "ARG_OF_PERICENTER": 52.5207, "MEAN_ANOMALY": 48.7108, "EPHEMERIS_TYPE": 0, "CLASSIFICATION_TYPE": "U", "NORAD_CAT_ID": 43683, "ELEMENT_SET_NO": 999, "REV_AT_EPOCH": 2622, "BSTAR": 0, "MEAN_MOTION_DOT": -2.56e-06, "MEAN_MOTION_DDOT": 0}, "tle": {"line1": "1 43683U 18085A   25349.94225359 -.00000256  00000+0  00000+0 0  9990", "line2": "2 43683   2.6158 102.8765 0001626  52.5207  48.7108  1.00269966 26222"}}, "geometry": {"type": "Point", "coordinates": [133.43658893486244, 1.3455064850961727]}}, {"type": "Feature", "properties": {"norad_id": 43687, "name": "COSMOS 2529 (757)", "group": "gnss", "lat": 62.53372147346411, "lon": -93.2906077072869, "alt_km": 19141.279827686798, "timestamp": "2025-12-16T17:51:11.174730+00:00", "meta": {"OBJECT_NAME": "COSMOS 2529 (757)", "OBJECT_ID": "2018-086A", "EPOCH": "2025-12-14T07:02:10.344192", "MEAN_MOTION": 2.13101932, "ECCENTRICITY": 0.00071555, "INCLINATION": 64.2921, "RA_OF_ASC_NODE": 198.8359, "ARG_OF_PERICENTER": 254.022, "MEAN_ANOMALY": 105.9754, "EPHEMERIS_TYPE": 0, "CLASSIFICATION_TYPE": "U", "NORAD_CAT_ID": 43687, "ELEMENT_SET_NO": 999, "REV_AT_EPOCH": 5534, "BSTAR": 0, "MEAN_MOTION_DOT": 9.3e-07, "MEAN_MOTION_DDOT": 0}, "tle": {"line1": "1 43687U 18086A   25348.29317528  .00000093  00000+0  00000+0 0  9990", "line2": "2 43687  64.2921 198.8359 0007155 254.0220 105.9754  2.13101932 55340"}}, "geometry": {"type": "Point", "coordinates": [-93.2906077072869, 62.53372147346411]}}, {"type": "Feature", "properties": {"norad_id": 43706, "name": "BEIDOU-3 M17 (C36)", "group": "gnss", "lat": -0.7110232500267053, "lon": -172.02142433429412, "alt_km": 21517.97823504985, "timestamp": "2025-12-16T17:51:11.174742+00:00", "meta": {"OBJECT_NAME": "BEIDOU-3 M17 (C36)", "OBJECT_ID": "2018-093A", "EPOCH": "2025-12-15T07:56:44.520576", "MEAN_MOTION": 1.86228523, "ECCENTRICITY": 0.00061371, "INCLINATION": 54.1729, "RA_OF_ASC_NODE": 188.5337, "ARG_OF_PERICENTER": 307.6759, "MEAN_ANOMALY": 184.25, "EPHEMERIS_TYPE": 0, "CLASSIFICATION_TYPE": "U", "NORAD_CAT_ID": 43706, "ELEMENT_SET_NO": 999, "REV_AT_EPOCH": 4811, "BSTAR": 0, "MEAN_MOTION_DOT": 1.13e-06, "MEAN_MOTION_DDOT": 0}, "tle": {"line1": "1 43706U 18093A   25349.33107084  .00000113  00000+0  00000+0 0  9993", "line2": "2 43706  54.1729 188.5337 0006137 307.6759 184.2500  1.86228523 48110"}}, "geometry": {"type": "Point", "coordinates": [-172.02142433429412, -0.7110232500267053]}}, {"type": "Feature", "properties": {"norad_id": 43707, "name": "BEIDOU-3 M18 (C37)", "group": "gnss", "lat": 54.096317187755304, "lon": -78.0550465003385, "alt_km": 21524.803649706908, "timestamp": "2025-12-16T17:51:11.174753+00:00", "meta": {"OBJECT_NAME": "BEIDOU-3 M18 (C37)", "OBJECT_ID": "2018-093B", "EPOCH": "2025-12-14T23:54:02.185632", "MEAN_MOTION": 1.86226745, "ECCENTRICITY": 0.00063121, "INCLINATION": 54.1734, "RA_OF_ASC_NODE": 188.5369, "ARG_OF_PERICENTER": 353.2198, "MEAN_ANOMALY": 6.8394, "EPHEMERIS_TYPE": 0, "CLASSIFICATION_TYPE": "U", "NORAD_CAT_ID": 43707, "ELEMENT_SET_NO": 999, "REV_AT_EPOCH": 4810, "BSTAR": 0, "MEAN_MOTION_DOT": 1.11e-06, "MEAN_MOTION_DDOT": 0}, "tle": {"line1": "1 43707U 18093B   25348.99585863  .00000111  00000+0  00000+0 0  9998", "line2": "2 43707  54.1734 188.5369 0006312 353.2198   6.8394  1.86226745 48104"}}, "geometry": {"type": "Point", "coordinates": [-78.0550465003385, 54.096317187755304]}}, {"type": "Feature", "properties": {"norad_id": 43873, "name": "GPS BIII-1  (PRN 04)", "group": "gnss", "lat": 20.99630358042477, "lon": -95.86472832944524, "alt_km": 20105.13651037222, "timestamp": "2025-12-16T17:51:11.174764+00:00", "meta": {"OBJECT_NAME": "GPS BIII-1  (PRN 04)", "OBJECT_ID": "2018-109A", "EPOCH": "2025-12-15T18:29:34.483200", "MEAN_MOTION": 2.00553802, "ECCENTRICITY": 0.00374359, "INCLINATION": 55.5688, "RA_OF_ASC_NODE": 99.4273, "ARG_OF_PERICENTER": 195.145, "MEAN_ANOMALY": 336.5518, "EPHEMERIS_TYPE": 0, "CLASSIFICATION_TYPE": "U", "NORAD_CAT_ID": 43873, "ELEMENT_SET_NO": 999, "REV_AT_EPOCH": 5139, "BSTAR": 0, "MEAN_MOTION_DOT": -3.2e-07, "MEAN_MOTION_DDOT": 0}, "tle": {"line1": "1 43873U 18109A   25349.77053800 -.00000032  00000+0  00000+0 0  9991", "line2": "2 43873  55.5688  99.4273 0037435 195.1450 336.5518  2.00553802 51399"}}, "geometry": {"type": "Point", "coordinates": [-95.86472832944524, 20.99630358042477]}}, {"type": "Feature", "properties": {"norad_id": 44204, "name": "BEIDOU-3 IGSO-1 (C38)", "group": "gnss", "lat": 51.31015509038742, "lon": 89.61768640840118, "alt_km": 35892.173205388506, "timestamp": "2025-12-16T17:51:11.174776+00:00", "meta": {"OBJECT_NAME": "BEIDOU-3 IGSO-1 (C38)", "OBJECT_ID": "2019-023A", "EPOCH": "2025-11-19T14:15:02.708640", "MEAN_MOTION": 1.00252177, "ECCENTRICITY": 0.0026966, "INCLINATION": 58.4003, "RA_OF_ASC_NODE": 39.8168, "ARG_OF_PERICENTER": 221.2202, "MEAN_ANOMALY": 126.9723, "EPHEMERIS_TYPE": 0, "CLASSIFICATION_TYPE": "U", "NORAD_CAT_ID": 44204, "ELEMENT_SET_NO": 999, "REV_AT_EPOCH": 510, "BSTAR": 0, "MEAN_MOTION_DOT": -2.26e-06, "MEAN_MOTION_DDOT": 0}, "tle": {"line1": "1 44204U 19023A   25323.59378135 -.00000226  00000+0  00000+0 0  9994", "line2": "2 44204  58.4003  39.8168 0026966 221.2202 126.9723  1.00252177  5102"}}, "geometry": {"type": "Point", "coordinates": [89.61768640840118, 51.31015509038742]}}, {"type": "Feature", "properties": {"norad_id": 44231, "name": "BEIDOU-2 G8 (C01)", "group": "gnss", "lat": 1.5021916372599855, "lon": 137.87080143315876, "alt_km": 35822.78072934208, "timestamp": "2025-12-16T17:51:11.174795+00:00", "meta": {"OBJECT_NAME": "BEIDOU-2 G8 (C01)", "OBJECT_ID": "2019-027A", "EPOCH": "2025-12-15T22:37:58.102176", "MEAN_MOTION": 1.00267349, "ECCENTRICITY": 0.00087641, "INCLINATION": 1.6701, "RA_OF_ASC_NODE": 74.7184, "ARG_OF_PERICENTER": 258.0815, "MEAN_ANOMALY": 235.9838, "EPHEMERIS_TYPE": 0, "CLASSIFICATION_TYPE": "U", "NORAD_CAT_ID": 44231, "ELEMENT_SET_NO": 999, "REV_AT_EPOCH": 2424, "BSTAR": 0, "MEAN_MOTION_DOT": -2.27e-06, "MEAN_MOTION_DDOT": 0}, "tle": {"line1": "1 44231U 19027A   25349.94303359 -.00000227  00000+0  00000+0 0  9992", "line2": "2 44231   1.6701  74.7184 0008764 258.0815 235.9838  1.00267349 24248"}}, "geometry": {"type": "Point", "coordinates": [137.87080143315876, 1.5021916372599855]}}, {"type": "Feature", "properties": {"norad_id": 44299, "name": "COSMOS 2534 (758)", "group": "gnss", "lat": -30.61456481387267, "lon": 35.27066238108835, "alt_km": 19126.121355422467, "timestamp": "2025-12-16T17:51:11.174810+00:00", "meta": {"OBJECT_NAME": "COSMOS 2534 (758)", "OBJECT_ID": "2019-030A", "EPOCH": "2025-12-15T05:49:22.027584", "MEAN_MOTION": 2.13102219, "ECCENTRICITY": 0.00088073, "INCLINATION": 64.3657, "RA_OF_ASC_NODE": 198.8086, "ARG_OF_PERICENTER": 283.8967, "MEAN_ANOMALY": 218.9019, "EPHEMERIS_TYPE": 0, "CLASSIFICATION_TYPE": "U", "NORAD_CAT_ID": 44299, "ELEMENT_SET_NO": 999, "REV_AT_EPOCH": 5100, "BSTAR": 0, "MEAN_MOTION_DOT": 1.03e-06, "MEAN_MOTION_DDOT": 0}, "tle": {"line1": "1 44299U 19030A   25349.24261606  .00000103  00000+0  00000+0 0  9993", "line2": "2 44299  64.3657 198.8086 0008807 283.8967 218.9019  2.13102219 51004"}}, "geometry": {"type": "Point", "coordinates": [35.27066238108835, -30.61456481387267]}}, {"type": "Feature", "properties": {"norad_id": 44337, "name": "BEIDOU-3 IGSO-2 (C39)", "group": "gnss", "lat": -37.00303622739641, "lon": 128.82195585076957, "alt_km": 35845.780582328756, "timestamp": "2025-12-16T17:51:11.174823+00:00", "meta": {"OBJECT_NAME": "BEIDOU-3 IGSO-2 (C39)", "OBJECT_ID": "2019-035A", "EPOCH": "2025-12-15T20:48:46.059264", "MEAN_MOTION": 1.0027048, "ECCENTRICITY": 0.00373444, "INCLINATION": 55.2266, "RA_OF_ASC_NODE": 160.4736, "ARG_OF_PERICENTER": 202.467, "MEAN_ANOMALY": 153.4937, "EPHEMERIS_TYPE": 0, "CLASSIFICATION_TYPE": "U", "NORAD_CAT_ID": 44337, "ELEMENT_SET_NO": 999, "REV_AT_EPOCH": 2382, "BSTAR": 0, "MEAN_MOTION_DOT": -3.5e-07, "MEAN_MOTION_DDOT": 0}, "tle": {"line1": "1 44337U 19035A   25349.86719976 -.00000035  00000+0  00000+0 0  9992", "line2": "2 44337  55.2266 160.4736 0037344 202.4670 153.4937  1.00270480 23827"}}, "geometry": {"type": "Point", "coordinates": [128.82195585076957, -37.00303622739641]}}]}